SKYKRAFT-1A             
1 55054U 23001AX  26068.71064616  .00008177  00000+0  30069-3 0  9991
2 55054  97.3349 127.6290 0011277 121.5092 238.7251 15.28083228176529
STARLINK-31107          
1 58684U 23211T   26068.05927359 -.00000272  00000+0 -37366-6 0  9995
2 58684  42.9994  89.2231 0001392 277.9362  82.1331 15.27585804122363
